BEIDOU-2 G1             
1 36287U 10001A   26116.84730652 -.00000289  00000+0  00000+0 0  9997
2 36287   4.1756  60.5473 0003631 296.1054 303.6780  1.00269097 59652
SDO                     
1 36395U 10005A   26116.45405531 -.00000056  00000+0  00000+0 0  9995
2 36395  34.5467  87.1205 0001115  32.9808 156.0340  1.00272690 59547
INTELSAT 16 (IS-16)     
1 36397U 10006A   26116.90671417 -.00000256  00000+0  00000+0 0  9998
2 36397   0.0165 280.3400 0002112 144.6267  40.1576  1.00270682 59143
EWS-G2 (GOES 15)        
1 36411U 10008A   26116.96145524  .00000012  00000+0  00000+0 0  9997
2 36411   1.1428  83.7723 0003983  23.7429 156.8227  1.00272523 59123
ECHOSTAR 14             
1 36499U 10010A   26116.61306630 -.00000012  00000+0  00000+0 0  9996
2 36499   0.0193 250.5141 0001756 157.2217 268.6800  1.00271224 46030
SES-1                   
1 36516U 10016A   26116.90186082 -.00000126  00000+0  00000+0 0  9997
2 36516   0.0230 289.9265 0002622 105.8435  42.7930  1.00272098 58510
ASTRA 3B                
1 36581U 10021A   26116.93723255  .00000127  00000+0  00000+0 0  9997
2 36581   1.3375  84.1360 0003906 320.3573 171.3601  1.00269246 58357
COMSATBW-2              
1 36582U 10021B   26116.92806111  .00000077  00000+0  00000+0 0  9994
2 36582   0.0134 249.7934 0002667 155.6932 156.7093  1.00269054 58443
BEIDOU-2 G3             
1 36590U 10024A   26116.93756763 -.00000143  00000+0  00000+0 0  9999
2 36590   4.3969  61.7180 0008590 337.2918 233.0812  1.00269992 58251
BADR-5                  
1 36592U 10025A   26116.94039288  .00000134  00000+0  00000+0 0  9998
2 36592   0.0651 101.3139 0003156 338.2938 139.8486  1.00272988 52708
COMS 1                  
1 36744U 10032A   26116.87586071 -.00000352  00000+0  00000+0 0  9997
2 36744   4.6751  76.0396 0001051 313.0776 269.2048  1.00272387 50572
ARABSAT-5A              
1 36745U 10032B   26116.93821615  .00000142  00000+0  00000+0 0  9997
2 36745   0.0735  48.7501 0004368  14.8038 159.6403  1.00269810 58134
ECHOSTAR 15             
1 36792U 10034A   26116.72384896  .00000000  00000+0  00000+0 0  9996
2 36792   0.0159 259.2516 0002014 135.7153 321.5421  1.00271413 57803
NILESAT 201             
1 36830U 10037A   26116.82475192 -.00000069  00000+0  00000+0 0  9999
2 36830   0.0352 121.0929 0002860 286.7818  96.8852  1.00270478 57865
RASCOM-QAF 1R           
1 36831U 10037B   26116.92240089  .00000007  00000+0  00000+0 0  9997
2 36831   0.0126 258.1731 0006613 136.6417 155.0722  1.00270529 57799
AEHF-1 (USA 214)        
1 36868U 10039A   26116.93677589  .00000142  00000+0  00000+0 0  9999
2 36868   8.0952  68.7173 0004278 315.9649 197.5133  1.00277373 53149
ZHONGXING-6A            
1 37150U 10042A   26116.80964975 -.00000270  00000+0  00000+0 0  9995
2 37150   4.0958  77.8459 0003495 272.4937 309.7504  0.99706686 57369
