[{"OBJECT_NAME":"BEIDOU-2 G1","OBJECT_ID":"2010-001A","EPOCH":"2026-04-26T20:20:07.283328","MEAN_MOTION":1.00269097,"ECCENTRICITY":0.00036317,"INCLINATION":4.1756,"RA_OF_ASC_NODE":60.5473,"ARG_OF_PERICENTER":296.1054,"MEAN_ANOMALY":303.678,"EPHEMERIS_TYPE":0,"CLASSIFICATION_TYPE":"U","NORAD_CAT_ID":36287,"ELEMENT_SET_NO":999,"REV_AT_EPOCH":5965,"BSTAR":0,"MEAN_MOTION_DOT":-2.89e-6,"MEAN_MOTION_DDOT":0},{"OBJECT_NAME":"SDO","OBJECT_ID":"2010-005A","EPOCH":"2026-04-26T10:53:50.378784","MEAN_MOTION":1.0027269,"ECCENTRICITY":0.0001115,"INCLINATION":34.5467,"RA_OF_ASC_NODE":87.1205,"ARG_OF_PERICENTER":32.9808,"MEAN_ANOMALY":156.034,"EPHEMERIS_TYPE":0,"CLASSIFICATION_TYPE":"U","NORAD_CAT_ID":36395,"ELEMENT_SET_NO":999,"REV_AT_EPOCH":5954,"BSTAR":0,"MEAN_MOTION_DOT":-5.6e-7,"MEAN_MOTION_DDOT":0},{"OBJECT_NAME":"INTELSAT 16 (IS-16)","OBJECT_ID":"2010-006A","EPOCH":"2026-04-26T21:45:40.104288","MEAN_MOTION":1.00270682,"ECCENTRICITY":0.00021121,"INCLINATION":0.0165,"RA_OF_ASC_NODE":280.34,"ARG_OF_PERICENTER":144.6267,"MEAN_ANOMALY":40.1576,"EPHEMERIS_TYPE":0,"CLASSIFICATION_TYPE":"U","NORAD_CAT_ID":36397,"ELEMENT_SET_NO":999,"REV_AT_EPOCH":5914,"BSTAR":0,"MEAN_MOTION_DOT":-2.56e-6,"MEAN_MOTION_DDOT":0},{"OBJECT_NAME":"EWS-G2 (GOES 15)","OBJECT_ID":"2010-008A","EPOCH":"2026-04-26T23:04:29.732736","MEAN_MOTION":1.00272523,"ECCENTRICITY":0.00039837,"INCLINATION":1.1428,"RA_OF_ASC_NODE":83.7723,"ARG_OF_PERICENTER":23.7429,"MEAN_ANOMALY":156.8227,"EPHEMERIS_TYPE":0,"CLASSIFICATION_TYPE":"U","NORAD_CAT_ID":36411,"ELEMENT_SET_NO":999,"REV_AT_EPOCH":5912,"BSTAR":0,"MEAN_MOTION_DOT":1.2e-7,"MEAN_MOTION_DDOT":0},{"OBJECT_NAME":"ECHOSTAR 14","OBJECT_ID":"2010-010A","EPOCH":"2026-04-26T14:42:48.928320","MEAN_MOTION":1.00271224,"ECCENTRICITY":0.00017568,"INCLINATION":0.0193,"RA_OF_ASC_NODE":250.5141,"ARG_OF_PERICENTER":157.2217,"MEAN_ANOMALY":268.68,"EPHEMERIS_TYPE":0,"CLASSIFICATION_TYPE":"U","NORAD_CAT_ID":36499,"ELEMENT_SET_NO":999,"REV_AT_EPOCH":4603,"BSTAR":0,"MEAN_MOTION_DOT":-1.2e-7,"MEAN_MOTION_DDOT":0},{"OBJECT_NAME":"SES-1","OBJECT_ID":"2010-016A","EPOCH":"2026-04-26T21:38:40.774848","MEAN_MOTION":1.00272098,"ECCENTRICITY":0.00026226,"INCLINATION":0.023,"RA_OF_ASC_NODE":289.9265,"ARG_OF_PERICENTER":105.8435,"MEAN_ANOMALY":42.793,"EPHEMERIS_TYPE":0,"CLASSIFICATION_TYPE":"U","NORAD_CAT_ID":36516,"ELEMENT_SET_NO":999,"REV_AT_EPOCH":5851,"BSTAR":0,"MEAN_MOTION_DOT":-1.26e-6,"MEAN_MOTION_DDOT":0},{"OBJECT_NAME":"ASTRA 3B","OBJECT_ID":"2010-021A","EPOCH":"2026-04-26T22:29:36.892320","MEAN_MOTION":1.00269246,"ECCENTRICITY":0.00039066,"INCLINATION":1.3375,"RA_OF_ASC_NODE":84.136,"ARG_OF_PERICENTER":320.3573,"MEAN_ANOMALY":171.3601,"EPHEMERIS_TYPE":0,"CLASSIFICATION_TYPE":"U","NORAD_CAT_ID":36581,"ELEMENT_SET_NO":999,"REV_AT_EPOCH":5835,"BSTAR":0,"MEAN_MOTION_DOT":1.27e-6,"MEAN_MOTION_DDOT":0},{"OBJECT_NAME":"COMSATBW-2","OBJECT_ID":"2010-021B","EPOCH":"2026-04-26T22:16:24.479904","MEAN_MOTION":1.00269054,"ECCENTRICITY":0.00026679,"INCLINATION":0.0134,"RA_OF_ASC_NODE":249.7934,"ARG_OF_PERICENTER":155.6932,"MEAN_ANOMALY":156.7093,"EPHEMERIS_TYPE":0,"CLASSIFICATION_TYPE":"U","NORAD_CAT_ID":36582,"ELEMENT_SET_NO":999,"REV_AT_EPOCH":5844,"BSTAR":0,"MEAN_MOTION_DOT":7.7e-7,"MEAN_MOTION_DDOT":0},{"OBJECT_NAME":"BEIDOU-2 G3","OBJECT_ID":"2010-024A","EPOCH":"2026-04-26T22:30:05.843232","MEAN_MOTION":1.00269992,"ECCENTRICITY":0.00085905,"INCLINATION":4.3969,"RA_OF_ASC_NODE":61.718,"ARG_OF_PERICENTER":337.2918,"MEAN_ANOMALY":233.0812,"EPHEMERIS_TYPE":0,"CLASSIFICATION_TYPE":"U","NORAD_CAT_ID":36590,"ELEMENT_SET_NO":999,"REV_AT_EPOCH":5825,"BSTAR":0,"MEAN_MOTION_DOT":-1.43e-6,"MEAN_MOTION_DDOT":0},{"OBJECT_NAME":"BADR-5","OBJECT_ID":"2010-025A","EPOCH":"2026-04-26T22:34:09.944832","MEAN_MOTION":1.00272988,"ECCENTRICITY":0.00031561,"INCLINATION":0.0651,"RA_OF_ASC_NODE":101.3139,"ARG_OF_PERICENTER":338.2938,"MEAN_ANOMALY":139.8486,"EPHEMERIS_TYPE":0,"CLASSIFICATION_TYPE":"U","NORAD_CAT_ID":36592,"ELEMENT_SET_NO":999,"REV_AT_EPOCH":5270,"BSTAR":0,"MEAN_MOTION_DOT":1.34e-6,"MEAN_MOTION_DDOT":0},{"OBJECT_NAME":"COMS 1","OBJECT_ID":"2010-032A","EPOCH":"2026-04-26T21:01:14.365344","MEAN_MOTION":1.00272387,"ECCENTRICITY":0.00010512,"INCLINATION":4.6751,"RA_OF_ASC_NODE":76.0396,"ARG_OF_PERICENTER":313.0776,"MEAN_ANOMALY":269.2048,"EPHEMERIS_TYPE":0,"CLASSIFICATION_TYPE":"U","NORAD_CAT_ID":36744,"ELEMENT_SET_NO":999,"REV_AT_EPOCH":5057,"BSTAR":0,"MEAN_MOTION_DOT":-3.52e-6,"MEAN_MOTION_DDOT":0},{"OBJECT_NAME":"ARABSAT-5A","OBJECT_ID":"2010-032B","EPOCH":"2026-04-26T22:31:01.875360","MEAN_MOTION":1.0026981,"ECCENTRICITY":0.00043687,"INCLINATION":0.0735,"RA_OF_ASC_NODE":48.7501,"ARG_OF_PERICENTER":14.8038,"MEAN_ANOMALY":159.6403,"EPHEMERIS_TYPE":0,"CLASSIFICATION_TYPE":"U","NORAD_CAT_ID":36745,"ELEMENT_SET_NO":999,"REV_AT_EPOCH":5813,"BSTAR":0,"MEAN_MOTION_DOT":1.42e-6,"MEAN_MOTION_DDOT":0},{"OBJECT_NAME":"ECHOSTAR 15","OBJECT_ID":"2010-034A","EPOCH":"2026-04-26T17:22:20.550144","MEAN_MOTION":1.00271413,"ECCENTRICITY":0.00020147,"INCLINATION":0.0159,"RA_OF_ASC_NODE":259.2516,"ARG_OF_PERICENTER":135.7153,"MEAN_ANOMALY":321.5421,"EPHEMERIS_TYPE":0,"CLASSIFICATION_TYPE":"U","NORAD_CAT_ID":36792,"ELEMENT_SET_NO":999,"REV_AT_EPOCH":5780,"BSTAR":0,"MEAN_MOTION_DOT":0,"MEAN_MOTION_DDOT":0},{"OBJECT_NAME":"NILESAT 201","OBJECT_ID":"2010-037A","EPOCH":"2026-04-26T19:47:38.565888","MEAN_MOTION":1.00270478,"ECCENTRICITY":0.00028602,"INCLINATION":0.0352,"RA_OF_ASC_NODE":121.0929,"ARG_OF_PERICENTER":286.7818,"MEAN_ANOMALY":96.8852,"EPHEMERIS_TYPE":0,"CLASSIFICATION_TYPE":"U","NORAD_CAT_ID":36830,"ELEMENT_SET_NO":999,"REV_AT_EPOCH":5786,"BSTAR":0,"MEAN_MOTION_DOT":-6.9e-7,"MEAN_MOTION_DDOT":0},{"OBJECT_NAME":"RASCOM-QAF 1R","OBJECT_ID":"2010-037B","EPOCH":"2026-04-26T22:08:15.436896","MEAN_MOTION":1.00270529,"ECCENTRICITY":0.00066132,"INCLINATION":0.0126,"RA_OF_ASC_NODE":258.1731,"ARG_OF_PERICENTER":136.6417,"MEAN_ANOMALY":155.0722,"EPHEMERIS_TYPE":0,"CLASSIFICATION_TYPE":"U","NORAD_CAT_ID":36831,"ELEMENT_SET_NO":999,"REV_AT_EPOCH":5779,"BSTAR":0,"MEAN_MOTION_DOT":7.0e-8,"MEAN_MOTION_DDOT":0},{"OBJECT_NAME":"AEHF-1 (USA 214)","OBJECT_ID":"2010-039A","EPOCH":"2026-04-26T22:28:57.436896","MEAN_MOTION":1.00277373,"ECCENTRICITY":0.0004278,"INCLINATION":8.0952,"RA_OF_ASC_NODE":68.7173,"ARG_OF_PERICENTER":315.9649,"MEAN_ANOMALY":197.5133,"EPHEMERIS_TYPE":0,"CLASSIFICATION_TYPE":"U","NORAD_CAT_ID":36868,"ELEMENT_SET_NO":999,"REV_AT_EPOCH":5314,"BSTAR":0,"MEAN_MOTION_DOT":1.42e-6,"MEAN_MOTION_DDOT":0},{"OBJECT_NAME":"ZHONGXING-6A","OBJECT_ID":"2010-042A","EPOCH":"2026-04-26T19:25:53.738400","MEAN_MOTION":0.99706686,"ECCENTRICITY":0.00034954,"INCLINATION":4.0958,"RA_OF_ASC_NODE":77.8459,"ARG_OF_PERICENTER":272.4937,"MEAN_ANOMALY":309.7504,"EPHEMERIS_TYPE":0,"CLASSIFICATION_TYPE":"U","NORAD_CAT_ID":37150,"ELEMENT_SET_NO":999,"REV_AT_EPOCH":5736,"BSTAR":0,"MEAN_MOTION_DOT":-2.7e-6,"MEAN_MOTION_DDOT":0}]
